QIANFAN-81              
1 63167U 25046J   25295.90357683  .00000171  00000+0  24585-3 0  9999
2 63167  88.9782 325.1368 0012671 266.8784  93.0917 13.50989102 40622
QIANFAN-82              
1 63168U 25046K   25295.93683157  .00000155  00000+0  22109-3 0  9993
2 63168  88.9782 325.1770 0010802 276.0579  83.9341 13.50971222 40611
QIANFAN-83              
1 63169U 25046L   25296.00643350  .00000158  00000+0  18965-3 0  9992
2 63169  88.9777 325.0458 0012072 261.7531  98.2258 13.61965812 40692
QIANFAN-84              
1 63170U 25046M   25295.96508535  .00000105  00000+0  14445-3 0  9994
2 63170  88.9782 325.3071 0013765 271.7310  88.2265 13.50987903 40544
QIANFAN-85              
1 63171U 25046N   25295.96150884  .00000172  00000+0  24750-3 0  9999
2 63171  88.9781 325.1794 0011154 274.7017  85.2860 13.50974330 40617
QIANFAN-86              
1 63172U 25046P   25295.96977368  .00000186  00000+0  26941-3 0  9993
2 63172  88.9784 325.0393 0009031 279.9810  80.0322 13.50971356 40693
QIANFAN-87              
1 63173U 25046Q   25296.01500483  .00000135  00000+0  19097-3 0  9999
2 63173  88.9773 325.1483 0009690 273.8748  86.1295 13.50969274 40633
QIANFAN-88              
1 63174U 25046R   25295.95742506  .00000155  00000+0  22131-3 0  9991
2 63174  88.9782 325.1075 0010118 283.6010  76.4014 13.50970378 40659
